CCSDS_OMM_VERS,COMMENT,CREATION_DATE,ORIGINATOR,OBJECT_NAME,OBJECT_ID,CENTER_NAME,REF_FRAME,TIME_SYSTEM,MEAN_ELEMENT_THEORY,EPOCH,MEAN_MOTION,ECCENTRICITY,INCLINATION,RA_OF_ASC_NODE,ARG_OF_PERICENTER,MEAN_ANOMALY,EPHEMERIS_TYPE,CLASSIFICATION_TYPE,NORAD_CAT_ID,ELEMENT_SET_NO,REV_AT_EPOCH,BSTAR,MEAN_MOTION_DOT,MEAN_MOTION_DDOT,SEMIMAJOR_AXIS,PERIOD,APOAPSIS,PERIAPSIS,OBJECT_TYPE,RCS_SIZE,COUNTRY_CODE,LAUNCH_DATE,SITE,DECAY_DATE,FILE,GP_ID,TLE_LINE0,TLE_LINE1,TLE_LINE2
3.0,GENERATED VIA SPACE-TRACK.ORG API,2005-05-02T23:40:10,18 SPCS,COSMOS 1823 DEB,1987-020BF,EARTH,TEME,UTC,SGP4,1989-03-04T22:25:59.341439,14.98649894,0.0090567,73.5657,256.7828,21.6778,338.8708,0,U,19146,999,5,1.4157,0.18533762,0.0,6949.208,96.086,634.01,508.136,DEBRIS,MEDIUM,CIS,1987-02-20,PKMTR,1989-03-06,131042,44048400,0 COSMOS 1823 DEB,1 19146U 87020 BF 89063.93471460  .18533762 +00000-0 +1415701 0  9991,2 19146 073.5657 256.7828 0090567 021.6778 338.8708 14.98649894000056
3.0,GENERATED VIA SPACE-TRACK.ORG API,2024-08-22T21:06:18,18 SPCS,FLOCK 4X 25,2022-002AJ,EARTH,TEME,UTC,SGP4,2024-08-20T18:38:10.156416,16.45876102,0.0012232,97.3433,314.3884,277.8193,82.1721,0,U,51016,999,14523,0.00041251,0.19238657,2.5325e-06,6528.355,87.491,158.205,142.234,PAYLOAD,MEDIUM,US,2022-01-13,AFETR,2024-08-20,4450474,265917803,0 FLOCK 4X 25,1 51016U 22002AJ  24233.77650644  .19238657  25325-5  41251-3 0  9991,2 51016  97.3433 314.3884 0012232 277.8193  82.1721 16.45876102145238
3.0,GENERATED VIA SPACE-TRACK.ORG API,2010-06-30T12:10:37,18 SPCS,DELTA 2 R/B(2) (PAM-D),2004-023C,EARTH,TEME,UTC,SGP4,2010-06-30T17:50:46.848191,16.56050822,0.0035775,38.6391,334.1529,217.0555,232.6374,0,U,28363,999,14807,0.00034447,0.99999999,5.4707e-06,6501.591,86.953,146.715,100.197,ROCKET BODY,LARGE,US,2004-06-23,AFETR,2010-06-30,921104,78431873,0 DELTA 2 R/B(2) (PAM-D),1 28363U 04023C   10181.74359778  .99999999  54707-5  34447-3 0  9997,2 28363 038.6391 334.1529 0035775 217.0555 232.6374 16.56050822148075
3.0,GENERATED VIA SPACE-TRACK.ORG API,2025-02-12T13:06:15,18 SPCS,STARLINK-2197,2021-017BE,EARTH,TEME,UTC,SGP4,2025-02-12T09:42:48.462048,16.5005881,0.0005877,53.0301,136.1402,276.5721,131.7427,0,U,47774,999,21851,0.0003391,0.30886185,1.2654e-05,6517.318,87.27,143.013,135.352,PAYLOAD,LARGE,US,2021-03-04,AFETR,2025-02-12,4638379,280529514,0 STARLINK-2197,1 47774U 21017BE  25043.40472757  .30886185  12654-4  33910-3 0  9990,2 47774  53.0301 136.1402 0005877 276.5721 131.7427 16.50058810218513
3.0,GENERATED VIA SPACE-TRACK.ORG API,2020-05-21T18:04:28,18 SPCS,IRIDIUM 33 DEB,1997-051ABA,EARTH,TEME,UTC,SGP4,2020-05-07T13:43:18.663456,15.76233498,0.0014748,86.3262,83.2042,145.3705,214.8532,0,U,39793,999,80552,0.0052841,0.00920687,0.0,6719.26,91.357,351.034,331.215,DEBRIS,SMALL,US,1997-09-14,TTMTR,2020-05-16,2752775,154340326,0 IRIDIUM 33 DEB,1 39793U 97051ABA 20128.57174379 +.00920687 +00000-0 +52841-2 0  9993,2 39793 086.3262 083.2042 0014748 145.3705 214.8532 15.76233498805521
3.0,GENERATED VIA SPACE-TRACK.ORG API,2004-08-17T15:27:12,18 SPCS,PEGASUS DEB,1994-029MM,EARTH,TEME,UTC,SGP4,2000-07-01T03:55:35.854752,16.30525399,0.0018099,82.2992,242.1536,220.9914,124.6502,0,U,24262,999,21777,0.01377,0.65992941,-1.452e-06,6569.269,88.315,203.024,179.244,DEBRIS,SMALL,US,1994-05-19,AFWTR,2000-07-01,35593,33870974,0 PEGASUS DEB,1 24262U 94029MM  00183.16360943 +.65992941 -14520-5 +13770-1 0  9996,2 24262 082.2992 242.1536 0018099 220.9914 124.6502 16.30525399217774
3.0,GENERATED VIA SPACE-TRACK.ORG API,2004-08-16T23:12:44,18 SPCS,OSO 6,1969-068A,EARTH,TEME,UTC,SGP4,1981-03-06T23:20:21.556608,16.38245563,0.0001853,32.9448,124.88,46.885,313.2804,0,U,4065,999,64720,8.9105e-05,0.04669629,-1.0284e-05,6548.614,87.898,171.693,169.266,PAYLOAD,LARGE,US,1969-08-09,AFETR,1981-03-07,34281,11858525,0 OSO 6,1 04065U 69068  A 81065.97247172  .04669629 -10284-4 +89105-4 0  9992,2 04065 032.9448 124.8800 0001853 046.8850 313.2804 16.38245563647201
3.0,GENERATED VIA SPACE-TRACK.ORG API,2021-03-14T17:54:18,18 SPCS,FALCON 9 DEB,2021-012BN,EARTH,TEME,UTC,SGP4,2021-03-14T02:09:21.321504,16.38160236,0.0011967,53.038,327.1822,279.6281,80.3413,0,U,47680,999,449,0.00046153,0.05251265,1.2328e-05,6548.838,87.903,178.54,162.866,DEBRIS,MEDIUM,US,2021-02-16,AFETR,2021-03-14,2982054,173404442,0 FALCON 9 DEB,1 47680U 21012BN  21073.08983011  .05251265  12328-4  46153-3 0  9992,2 47680  53.0380 327.1822 0011967 279.6281  80.3413 16.38160236  4492
3.0,GENERATED VIA SPACE-TRACK.ORG API,2004-08-17T14:46:57,18 SPCS,PROGRESS-M 8,1991-038A,EARTH,TEME,UTC,SGP4,1991-08-17T13:47:59.905824,15.67321449,0.0027272,51.6051,338.6846,236.1305,123.7282,0,U,21395,999,1237,0.0064886,0.00798219,0.0,6744.711,91.876,384.971,348.182,PAYLOAD,MEDIUM,CIS,1991-05-30,TTMTR,1991-08-17,34788,18454957,0 PROGRESS-M 8,1 21395U 91038  A 91229.57499891  .00798219 +00000-0 +64886-2 0  9996,2 21395 051.6051 338.6846 0027272 236.1305 123.7282 15.67321449012378
3.0,GENERATED VIA SPACE-TRACK.ORG API,2004-05-29T18:11:15,18 SPCS,SL-6 R/B(2),1985-103D,EARTH,TEME,UTC,SGP4,2003-01-11T08:28:01.277183,14.10130873,0.1022088,62.3667,80.9864,267.4494,82.4738,0,U,16223,999,12915,0.032095,0.99999999,1.5696e-05,7237.065,102.118,1598.622,119.238,ROCKET BODY,LARGE,CIS,1985-10-28,PKMTR,2003-01-13,7147,4480221,0 SL-6 R/B(2),1 16223U 85103D   03011.35279256 +.99999999 +15696-4 +32095-1 0  9998,2 16223 062.3667 080.9864 1022088 267.4494 082.4738 14.10130873129156
3.0,GENERATED VIA SPACE-TRACK.ORG API,2005-04-25T10:07:34,18 SPCS,SL-3 DEB,1969-029Q,EARTH,TEME,UTC,SGP4,1973-04-17T17:18:53.314559,16.14550166,0.0020926,81.2708,201.7763,264.9069,94.9769,0,U,3865,999,22085,0.0,0.07895901,0.017382,6612.531,89.188,248.233,220.559,DEBRIS,,,,,1973-04-25,129569,41938022,0 SL-3 DEB,1 03865U 69029  Q 73107.72145040  .07895901 +17382-1 +00000-0 0  9990,2 03865 081.2708 201.7763 0020926 264.9069 094.9769 16.14550166220857
3.0,GENERATED VIA SPACE-TRACK.ORG API,2005-05-02T23:40:10,18 SPCS,CZ-3 R/B,1988-014B,EARTH,TEME,UTC,SGP4,1989-07-18T00:54:50.009184,14.78929813,0.0753879,30.2992,46.3515,281.9666,69.7519,0,U,18923,999,160,0.00083666,0.40643035,-2.0499e-05,7010.845,97.367,1161.243,104.177,ROCKET BODY,LARGE,PRC,1988-03-07,XSC,1989-07-20,131042,44037087,0 CZ-3 R/B,1 18923U 88014  B 89199.03807881  .40643035 -20499-4 +83666-3 0  9991,2 18923 030.2992 046.3515 0753879 281.9666 069.7519 14.78929813001607
3.0,GENERATED VIA SPACE-TRACK.ORG API,2024-03-01T10:26:14,18 SPCS,STARLINK-5505,2023-094AT,EARTH,TEME,UTC,SGP4,2024-03-01T03:19:09.609888,16.32557547,0.0013112,42.9758,319.225,240.7276,249.3591,0,U,57259,999,3762,0.0005277,0.03349843,9.0977e-06,6563.813,88.205,194.284,177.071,PAYLOAD,LARGE,US,2023-07-07,AFWTR,2024-03-02,4202553,250469629,0 STARLINK-5505,1 57259U 23094AT  24061.13830567  .03349843  90977-5  52770-3 0  9997,2 57259  42.9758 319.2250 0013112 240.7276 249.3591 16.32557547 37629
3.0,GENERATED VIA SPACE-TRACK.ORG API,2004-08-17T15:22:21,18 SPCS,SPARTAN 201,1998-064C,EARTH,TEME,UTC,SGP4,1998-11-03T14:12:13.999680,15.03864411,0.0007175,28.4659,126.9282,89.3985,29.8341,0,U,25521,999,26,4.2641e-05,7.75e-06,0.0,6933.135,95.753,559.974,550.025,PAYLOAD,,,,,1998-11-07,35496,28859208,0 SPARTAN 201,1 25521U 98064C   98307.59182870 +.00000775 +00000-0 +42641-4 0  9999,2 25521 028.4659 126.9282 0007175 089.3985 029.8341 15.03864411000261
3.0,GENERATED VIA SPACE-TRACK.ORG API,2004-08-15T23:39:47,18 SPCS,SL-4 R/B,1976-045B,EARTH,TEME,UTC,SGP4,1976-05-29T10:15:35.649216,16.3175297,0.0012597,64.9967,345.0415,354.7027,5.3971,0,U,8854,999,148,0.0,0.0226295,0.0,6565.974,88.248,196.11,179.568,ROCKET BODY,,,,,1976-05-30,33994,9767012,0 SL-4 R/B,1 08854U 76045  B 76150.42749594  .02262950 +00000-0 +00000-0 0  9996,2 08854 064.9967 345.0415 0012597 354.7027 005.3971 16.31752970001481
3.0,GENERATED VIA SPACE-TRACK.ORG API,2008-07-10T16:34:01,18 SPCS,COSMOS 2421 DEB,2006-026CZ,EARTH,TEME,UTC,SGP4,2008-06-29T00:04:49.872864,15.82583337,0.0031627,65.1097,44.3493,240.5317,140.8226,0,U,32850,999,896,0.0056764,0.01407152,0.0,6701.279,90.99,344.338,301.95,DEBRIS,SMALL,CIS,2006-06-25,TTMTR,2008-07-04,576992,67052794,0 COSMOS 2421 DEB,1 32850U 06026CZ  08181.00335501  .01407152  00000-0  56764-2 0  9997,2 32850 065.1097 044.3493 0031627 240.5317 140.8226 15.82583337  8967
3.0,GENERATED VIA SPACE-TRACK.ORG API,2024-06-10T08:46:16,18 SPCS,ELECTRON R/B,2024-099B,EARTH,TEME,UTC,SGP4,2024-06-10T08:27:39.023136,16.46282928,0.0027981,97.4512,21.775,183.1273,235.1261,0,U,59882,999,254,0.00037978,0.26591496,2.1862e-06,6527.279,87.47,167.408,130.88,ROCKET BODY,MEDIUM,US,2024-05-25,RLLC,2024-06-10,4341343,259222116,0 ELECTRON R/B,1 59882U 24099B   24162.35253499  .26591496  21862-5  37978-3 0  9994,2 59882  97.4512  21.7750 0027981 183.1273 235.1261 16.46282928  2545
3.0,GENERATED VIA SPACE-TRACK.ORG API,2013-06-11T00:20:35,18 SPCS,ELEKTRON 1 DEB,1964-006AB,EARTH,TEME,UTC,SGP4,2013-06-09T21:47:39.422687,16.29526994,0.0011147,60.6499,348.8121,336.2018,140.5007,0,U,19998,999,95120,0.008342,0.37238051,9.9791e-06,6571.952,88.369,201.143,186.491,DEBRIS,SMALL,CIS,1964-01-30,TTMTR,2013-06-10,1498733,93076693,0 ELEKTRON 1 DEB,1 19998U 64006AB  13160.90809517  .37238051  99791-5  83420-2 0  9990,2 19998 060.6499 348.8121 0011147 336.2018 140.5007 16.29526994951203
3.0,GENERATED VIA SPACE-TRACK.ORG API,2004-08-15T23:41:23,18 SPCS,TITAN 3C TRANSTAGE DEB,1965-082MU,EARTH,TEME,UTC,SGP4,1978-08-07T17:01:33.027455,15.43358276,0.0013244,32.9839,58.5197,45.2345,314.9386,0,U,3382,999,67998,0.0,0.00369397,0.0,6814.347,93.303,445.237,427.187,DEBRIS,SMALL,US,1965-10-15,AFETR,1978-09-06,34026,10234616,0 TITAN 3C TRANSTAGE DEB,1 03382U 65082 MU 78219.70941004  .00369397 +00000-0 +00000-0 0  9996,2 03382 032.9839 058.5197 0013244 045.2345 314.9386 15.43358276679981
